[{"OBJECT_NAME":"HAIYANG-1B","OBJECT_ID":"2007-010A","EPOCH":"2026-03-09T22:15:19.251360","MEAN_MOTION":14.3099952,"ECCENTRICITY":0.00143047,"INCLINATION":98.343,"RA_OF_ASC_NODE":54.6595,"ARG_OF_PERICENTER":132.0498,"MEAN_ANOMALY":228.1905,"EPHEMERIS_TYPE":0,"CLASSIFICATION_TYPE":"U","NORAD_CAT_ID":31113,"ELEMENT_SET_NO":999,"REV_AT_EPOCH":98643,"BSTAR":7.2604842e-5,"MEAN_MOTION_DOT":1.5e-6,"MEAN_MOTION_DDOT":0},{"OBJECT_NAME":"COSMOS 1275 DEB","OBJECT_ID":"1981-053KD","EPOCH":"2026-03-09T14:42:20.189088","MEAN_MOTION":14.18989514,"ECCENTRICITY":0.0047055,"INCLINATION":83.0582,"RA_OF_ASC_NODE":280.0359,"ARG_OF_PERICENTER":257.196,"MEAN_ANOMALY":158.3868,"EPHEMERIS_TYPE":0,"CLASSIFICATION_TYPE":"U","NORAD_CAT_ID":15768,"ELEMENT_SET_NO":999,"REV_AT_EPOCH":7953,"BSTAR":0.0016143,"MEAN_MOTION_DOT":3.42e-5,"MEAN_MOTION_DDOT":0}]
